STARLINK-30704
1 57946U 23148M   25332.81635130  .00001658  00000+0  68111-4 0  9991
2 57946  53.1598 209.9947 0001272  81.4578 278.6567 15.30194203121877